PELICAN-6               
1 66703U 25276AP  26068.70709364  .00077979  00000+0  29726-2 0  9998
2 66703  97.4276 144.2072 0003569 157.8575 202.2819 15.26377980 15334
STARLINK-36549          
1 67510U 26012T   26068.08057952  .00022153  00000+0  81221-3 0  9997
2 67510  42.9999 317.3954 0001563 262.2929  97.7745 15.27576100  7675
